IRIDIUM 166             
1 43570U 18061B   24124.44586505  .00000425  00000+0  14471-3 0  9995
2 43570  86.4017  20.5074 0002114  78.4489 281.6944 14.34218227302354
IRIDIUM 158             
1 43571U 18061C   24124.20483981  .00000234  00000+0  76361-4 0  9999
2 43571  86.4015  20.6172 0002044  87.7558 272.3872 14.34214676302299
IRIDIUM 165             
1 43572U 18061D   24124.43951887  .00000350  00000+0  11775-3 0  9996
2 43572  86.4017  20.5508 0001975  84.3237 275.8184 14.34219198302347
IRIDIUM 155             
1 43573U 18061E   24124.19215709  .00000400  00000+0  13561-3 0  9997
2 43573  86.4012  20.5615 0002217  80.2848 279.8598 14.34216400302284
IRIDIUM 154             
1 43574U 18061F   24124.45220634  .00000400  00000+0  13559-3 0  9997
2 43574  86.4018  20.5485 0002430  88.2616 271.8858 14.34218615302364
IRIDIUM 163             
1 43575U 18061G   24123.45641843  .00000497  00000+0  17044-3 0  9995
2 43575  86.4014  20.9039 0002254  83.9082 276.2371 14.34216649302198
IRIDIUM 156             
1 43576U 18061H   24123.43104466  .00000432  00000+0  14701-3 0  9995
2 43576  86.4015  20.9207 0002133  83.3041 276.8398 14.34220209302183
IRIDIUM 164             
1 43577U 18061J   24124.45855205  .00000426  00000+0  14492-3 0  9993
2 43577  86.4015  20.5199 0002129  92.9582 267.1857 14.34216113302374
